{"fetched_at":"2026-07-18T06:27:54.277Z","source":"https://celestrak.org/NORAD/elements/gp.php?GROUP=stations&FORMAT=JSON","constellation":"iss","records":[{"OBJECT_NAME":"ISS (ZARYA)","OBJECT_ID":"1998-067A","EPOCH":"2026-07-17T19:56:26.020608","CLASSIFICATION_TYPE":"U","MEAN_MOTION":15.49035972,"ECCENTRICITY":0.00067917,"INCLINATION":51.6316,"RA_OF_ASC_NODE":148.4431,"ARG_OF_PERICENTER":307.8623,"MEAN_ANOMALY":52.175,"EPHEMERIS_TYPE":0,"NORAD_CAT_ID":25544,"ELEMENT_SET_NO":999,"REV_AT_EPOCH":57650,"BSTAR":0.000077849885,"MEAN_MOTION_DOT":0.00003846,"MEAN_MOTION_DDOT":0}]}
